STRIX-4                 
1 60352U 24137A   26068.65404516  .00020530  00000+0  71820-3 0  9996
2 60352  43.0134 129.8162 0016840   5.2738 354.8289 15.29026223 88766
STARLINK-34065          
1 63813U 25092K   26068.33080767  .00045434  00000+0  16484-2 0  9999
2 63813  42.9906 170.7214 0003326 146.7336 213.3725 15.27617827 48549
